[Satellite]
VERSION=1.1
NAME=ERBS
NICKNAME=ERBS
TLE1=1 15354U 84108B   18020.87790016  .00002181  00000-0  53714-4 0  9994
TLE2=2 15354  57.0075 280.0751 0013736 138.2232 221.9875 15.45185655831560
